HAWK-7C                 
1 56200U 23054Y   26068.68891713  .00007947  00000+0  30980-3 0  9991
2 56200  97.2829 317.5849 0003651  52.2090 307.9479 15.26207266161848
STARLINK-30447          
1 57874U 23144L   26068.55986978 -.00000085  00000+0  64981-5 0  9990
2 57874  42.9968 260.1413 0001542 274.2299  85.8376 15.26742466137916
